ZHUHAI-1 01 (CAS-4A)    
1 42761U 17034D   23185.51497451  .00006718  00000+0  33764-3 0  9997
2 42761  43.0152  17.8676 0012359 220.7957 139.1966 15.17724359334272
MAX VALIER SAT          
1 42778U 17036P   23184.67854350  .00019195  00000+0  48692-3 0  9997
2 42778  97.1527 219.1398 0009019  56.3396 303.8709 15.39682043335265
RADFXSAT (FOX-1B)       
1 43017U 17073E   23184.95008523  .00007502  00000+0  52096-3 0  9991
2 43017  97.6287  68.6253 0232860  14.3869 346.3829 14.86400199303674
FOX-1D (AO-92)          
1 43137U 18004AC  23185.21388549  .00029077  00000+0  56998-3 0  9994
2 43137  97.3284 264.6042 0005882  87.5799 272.6125 15.47309612304937
DIWATA-2B               
1 43678U 18084H   23185.47467724  .00001532  00000+0  15117-3 0  9997
2 43678  98.0251 329.7943 0010874 103.3455 256.8977 14.93489338254842
ES'HAIL 2               
1 43700U 18090A   23185.08869068  .00000149  00000+0  00000+0 0  9998
2 43700   0.0176  30.0683 0002013 104.1877 205.3096  1.00269802 17106
FOX-1CLIFF (AO-95)      
1 43770U 18099N   23185.10350436  .00004067  00000+0  33092-3 0  9995
2 43770  97.5685 246.1803 0014489  86.7654 273.5227 15.00012575250145
ITASAT 1                
1 43786U 18099AE  23184.44224865  .00003404  00000+0  28025-3 0  9998
2 43786  97.5730 246.5704 0014778  77.1439 283.1435 14.99657213250085
JY1SAT (JO-97)          
1 43803U 18099AX  23185.11514137  .00004744  00000+0  37468-3 0  9996
2 43803  97.5721 247.2512 0015538  42.0738 318.1676 15.01062812250230
UWE-4                   
1 43880U 18111E   23185.20828632  .00004850  00000+0  36901-3 0  9993
2 43880  97.6361  90.1241 0020315 114.0588 246.2766 15.02412444244923
NEXUS (FO-99)           
1 43937U 19003F   23184.32844116  .00050054  00000+0  74620-3 0  9991
2 43937  97.0831 211.3570 0012046 200.6898 159.3870 15.54857510248559
JAISAT-1                
1 44419U 19038F   23184.50371146  .00018194  00000+0  60702-3 0  9998
2 44419  97.6730 166.7772 0012383 236.1078 123.8985 15.31052375221032
DUCHIFAT-3              
1 44854U 19089C   23185.50688049  .00007196  00000+0  48195-3 0  9993
2 44854  36.9631 347.7572 0007675  94.6368 265.5253 15.06530204195448
CAS-6 (TIANQIN 1)       
1 44881U 19093C   23185.50722145  .00000848  00000+0  11180-3 0  9995
2 44881  97.8616 263.6640 0015263  27.0247 333.1758 14.82579002191368
RS-44 & BREEZE-KM R/B   
1 44909U 19096E   23183.93741993  .00000015  00000+0  10310-4 0  9997
2 44909  82.5223 337.4779 0218067 149.9246 211.4590 12.79721964164224
BY70-2                  
1 45857U 20042B   23185.45973028  .00014754  00000+0  14911-2 0  9992
2 45857  97.9263 265.4239 0007078 306.5167  53.5398 14.91107802162115
SALSAT                  
1 46495U 20068K   23172.83279536  .00004036  00000+0  26739-3 0  9994
2 46495  97.7704 120.8847 0017405 103.1112 257.2059 15.07774126149778
RADFXSAT-2 (AO-109)     
1 47311U 21002C   23184.74089399  .00021931  00000+0  55358-3 0  9992
2 47311  60.6814 354.8624 0008624 203.4486 156.6217 15.39831624136844
UVSQ-SAT                
1 47438U 21006AB  23184.43880410  .00012377  00000+0  49925-3 0  9992
2 47438  97.3832 241.3155 0009872  34.8262 325.3620 15.24905071135129
DIY-1 (ARDUIQUBE)       
1 47963U 21022AH  23185.22373751  .00447712  00000+0  28531-2 0  9990
2 47963  97.4888  95.0255 0011473 160.0138 200.1578 15.75085866125266
LEDSAT                  
1 49069U 21073D   23185.43308578  .00006954  00000+0  37861-3 0  9999
2 49069  97.4817 256.0172 0024959  63.4207 296.9579 15.14475014103519
XW-3 (CAS-9)            
1 50466U 21131B   23185.48418611  .00000510  00000+0  17987-3 0  9991
2 50466  98.5521 266.9758 0005502  90.9587 269.2231 14.38947725 79849
TEVEL-3                 
1 50988U 22002E   23185.43119457  .00015853  00000+0  62244-3 0  9991
2 50988  97.4326 252.2849 0008576 165.3701 194.7787 15.25762959 81399
TEVEL-8                 
1 50989U 22002F   23185.45070076  .00016252  00000+0  63928-3 0  9991
2 50989  97.4343 252.3653 0008635 164.4786 195.6718 15.25695520 81395
TEVEL-5                 
1 50998U 22002Q   23185.43194192  .00016850  00000+0  64438-3 0  9996
2 50998  97.4321 252.6898 0009813 161.4583 198.7015 15.26617679 81424
TEVEL-6                 
1 50999U 22002R   23185.43046110  .00016944  00000+0  64792-3 0  9990
2 50999  97.4319 252.6826 0009814 161.2276 198.9327 15.26618284 81422
TEVEL-1                 
1 51013U 22002AF  23185.44152492  .00015938  00000+0  62669-3 0  9993
2 51013  97.4320 252.2358 0008496 165.0913 195.0577 15.25715266 81391
TEVEL-7                 
1 51062U 22002CG  23185.45148037  .00016564  00000+0  65110-3 0  9998
2 51062  97.4339 252.3389 0008603 164.1597 195.9912 15.25716117 81396
TEVEL-4                 
1 51063U 22002CH  23185.45816794  .00016478  00000+0  64884-3 0  9992
2 51063  97.4337 252.3277 0008605 164.2602 195.8905 15.25659572 81393
TEVEL-2                 
1 51069U 22002CP  23185.43297811  .00015969  00000+0  62688-3 0  9993
2 51069  97.4323 252.2576 0008531 165.2341 194.9148 15.25768308 81391
GREENCUBE               
1 53106U 22080B   23184.70595441 -.00000003  00000+0  00000+0 0  9992
2 53106  70.1641 313.9781 0008494 182.0884 177.9741  6.42556846 22819
RS29S (SXC3-2110 CYCLO*)
1 53373U 22096D   23185.49235793  .00028868  00000+0  72231-3 0  9990
2 53373  97.4123  91.9989 0003624 102.0236 258.1417 15.40059773 50355
RS32S (SXC3-212 MONITO*)
1 53374U 22096E   23185.47148312  .00026891  00000+0  69393-3 0  9998
2 53374  97.4100  91.8273 0003982  96.7139 263.4559 15.39128238 50340
RS34S (SXC3-218 KUZBAS*)
1 53375U 22096F   23185.51558211  .00020550  00000+0  56921-3 0  9996
2 53375  97.4130  91.5153 0003725  92.5098 267.6573 15.36993283 50328
RS23S (SXC3-21 UTMN)    
1 53376U 22096G   23185.46688591  .00021836  00000+0  59401-3 0  9990
2 53376  97.4124  91.5724 0003591  95.7316 264.4338 15.37543043 50325
RS28S (SXC3-214 MIET-A*)
1 53377U 22096H   23185.46563027  .00019157  00000+0  53979-3 0  9994
2 53377  97.4137  91.4389 0003593  91.3289 268.8367 15.36474530 50311
RS26S (KAI-1)           
1 53378U 22096J   23185.45603615  .00015237  00000+0  45168-3 0  9998
2 53378  97.4153  91.1660 0003272  89.7302 270.4316 15.34931401 50293
RS19S (SXC3-219 ISOI)   
1 53381U 22096M   23185.46895309  .00019644  00000+0  53812-3 0  9997
2 53381  97.4126  91.7179 0003612  44.3114 315.8419 15.37347535 50339
RS21S (CUBESX-HSE-2)    
1 53383U 22096P   23185.50162826  .00021929  00000+0  59095-3 0  9993
2 53383  97.4127  91.8388 0003983  41.0019 319.1524 15.37832885 50346
RS30S (SXC3-217 SIREN)  
1 53384U 22096Q   23185.48595075  .00018113  00000+0  51510-3 0  9992
2 53384  97.4142  91.5714 0003843  35.1549 324.9948 15.36196561 50326
RS20S (GEOSCAN-EDELVEIS)
1 53385U 22096R   23185.44165561  .00030373  00000+0  72213-3 0  9997
2 53385  97.4110  92.5032 0003610  33.6861 326.4614 15.41599507 50418
RS33S (SXC3-215 VIZARD) 
1 53386U 22096S   23185.44158123  .00037005  00000+0  76252-3 0  9990
2 53386  97.4111  93.2630 0003950  43.8342 316.3220 15.45815872 50451
CAS-5A (FO-118)         
1 54684U 22167C   23185.52206669  .00009459  00000+0  51771-3 0  9990
2 54684  97.5651 322.9857 0012257 274.3746  85.6085 15.14396727 31302
